{"fetched_at":"2026-03-30T06:02:59Z","count":15439,"tles":[{"name":"STARLINK-2143","line1":"1 47733U 21017M   26087.82672477  .00001100  00000+0  49273-4 0  9991","line2":"2 47733  53.1618 127.8376 0001721  90.8903 269.2295 15.30195237280645","category":"Starlink"}]}